{
  "type": "FeatureCollection",
  "features": [
    {
      "type": "Feature",
      "properties": {
        "norad_id": 33376,
        "name": "GALAXY 19 (G-19)",
        "group": "intelsat",
        "lat": 0.003959920920685189,
        "lon": 159.02322174540825,
        "alt_km": 35789.36257910602,
        "timestamp": "2025-12-12T11:38:31.083873+00:00",
        "meta_object_name": "GALAXY 19 (G-19)",
        "meta_object_id": "2008-045A",
        "meta_epoch": "2025-12-12T02:44:48.728832",
        "meta_mean_motion": 1.00269708,
        "meta_eccentricity": 0.0002642,
        "meta_inclination": 0.0173,
        "meta_ra_of_asc_node": 351.1363,
        "meta_arg_of_pericenter": 271.8306,
        "meta_mean_anomaly": 122.3026,
        "meta_ephemeris_type": 0,
        "meta_classification_type": "U",
        "meta_norad_cat_id": 33376,
        "meta_element_set_no": 999,
        "meta_rev_at_epoch": 6302,
        "meta_bstar": 0,
        "meta_mean_motion_dot": 0,
        "meta_mean_motion_ddot": 0,
        "tle_line1": "1 33376U 08045A   25346.11445288  .00000000  00000+0  00000+0 0  9990",
        "tle_line2": "2 33376   0.0173 351.1363 0002642 271.8306 122.3026  1.00269708 63028"
      },
      "geometry": {
        "type": "Point",
        "coordinates": [
          159.02322174540825,
          0.003959920920685189
        ]
      }
    },
    {
      "type": "Feature",
      "properties": {
        "norad_id": 35493,
        "name": "FM-5",
        "group": "intelsat",
        "lat": -0.019225251128943296,
        "lon": 169.91055064176075,
        "alt_km": 35783.38919063214,
        "timestamp": "2025-12-12T11:38:31.083885+00:00",
        "meta_object_name": "FM-5",
        "meta_object_id": "2009-034A",
        "meta_epoch": "2025-12-11T23:22:27.924384",
        "meta_mean_motion": 1.00271483,
        "meta_eccentricity": 6.71e-05,
        "meta_inclination": 0.0165,
        "meta_ra_of_asc_node": 292.0867,
        "meta_arg_of_pericenter": 235.2397,
        "meta_mean_anomaly": 178.0732,
        "meta_ephemeris_type": 0,
        "meta_classification_type": "U",
        "meta_norad_cat_id": 35493,
        "meta_element_set_no": 999,
        "meta_rev_at_epoch": 4476,
        "meta_bstar": 0,
        "meta_mean_motion_dot": -1.91e-06,
        "meta_mean_motion_ddot": 0,
        "tle_line1": "1 35493U 09034A   25345.97393431 -.00000191  00000+0  00000+0 0  9998",
        "tle_line2": "2 35493   0.0165 292.0867 0000671 235.2397 178.0732  1.00271483 44762"
      },
      "geometry": {
        "type": "Point",
        "coordinates": [
          169.91055064176075,
          -0.019225251128943296
        ]
      }
    },
    {
      "type": "Feature",
      "properties": {
        "norad_id": 36097,
        "name": "INTELSAT 14 (IS-14)",
        "group": "intelsat",
        "lat": -0.011330976229716851,
        "lon": -148.96443735336584,
        "alt_km": 35779.91164209865,
        "timestamp": "2025-12-12T11:38:31.083897+00:00",
        "meta_object_name": "INTELSAT 14 (IS-14)",
        "meta_object_id": "2009-064A",
        "meta_epoch": "2025-12-12T02:59:39.808320",
        "meta_mean_motion": 1.00272396,
        "meta_eccentricity": 0.0002523,
        "meta_inclination": 0.0139,
        "meta_ra_of_asc_node": 26.6259,
        "meta_arg_of_pericenter": 240.0342,
        "meta_mean_anomaly": 174.3356,
        "meta_ephemeris_type": 0,
        "meta_classification_type": "U",
        "meta_norad_cat_id": 36097,
        "meta_element_set_no": 999,
        "meta_rev_at_epoch": 5872,
        "meta_bstar": 0,
        "meta_mean_motion_dot": -2.64e-06,
        "meta_mean_motion_ddot": 0,
        "tle_line1": "1 36097U 09064A   25346.12476630 -.00000264  00000+0  00000+0 0  9994",
        "tle_line2": "2 36097   0.0139  26.6259 0002523 240.0342 174.3356  1.00272396 58728"
      },
      "geometry": {
        "type": "Point",
        "coordinates": [
          -148.96443735336584,
          -0.011330976229716851
        ]
      }
    },
    {
      "type": "Feature",
      "properties": {
        "norad_id": 36106,
        "name": "INTELSAT 15 (IS-15)",
        "group": "intelsat",
        "lat": 0.019066071137136886,
        "lon": -18.767708580040207,
        "alt_km": 35783.0356054751,
        "timestamp": "2025-12-12T11:38:31.083909+00:00",
        "meta_object_name": "INTELSAT 15 (IS-15)",
        "meta_object_id": "2009-067A",
        "meta_epoch": "2025-12-12T01:54:01.094976",
        "meta_mean_motion": 1.00272349,
        "meta_eccentricity": 0.0002352,
        "meta_inclination": 0.0211,
        "meta_ra_of_asc_node": 292.3297,
        "meta_arg_of_pericenter": 335.9709,
        "meta_mean_anomaly": 286.3858,
        "meta_ephemeris_type": 0,
        "meta_classification_type": "U",
        "meta_norad_cat_id": 36106,
        "meta_element_set_no": 999,
        "meta_rev_at_epoch": 3935,
        "meta_bstar": 0,
        "meta_mean_motion_dot": -1.76e-06,
        "meta_mean_motion_ddot": 0,
        "tle_line1": "1 36106U 09067A   25346.07917934 -.00000176  00000+0  00000+0 0  9991",
        "tle_line2": "2 36106   0.0211 292.3297 0002352 335.9709 286.3858  1.00272349 39352"
      },
      "geometry": {
        "type": "Point",
        "coordinates": [
          -18.767708580040207,
          0.019066071137136886
        ]
      }
    },
    {
      "type": "Feature",
      "properties": {
        "norad_id": 36131,
        "name": "DIRECTV 12",
        "group": "intelsat",
        "lat": 0.018199769985764128,
        "lon": 153.33870627187554,
        "alt_km": 35787.93576029977,
        "timestamp": "2025-12-12T11:38:31.083921+00:00",
        "meta_object_name": "DIRECTV 12",
        "meta_object_id": "2009-075A",
        "meta_epoch": "2025-12-11T23:17:43.378080",
        "meta_mean_motion": 1.00271584,
        "meta_eccentricity": 4.68e-05,
        "meta_inclination": 0.0479,
        "meta_ra_of_asc_node": 139.1887,
        "meta_arg_of_pericenter": 218.3,
        "meta_mean_anomaly": 330.148,
        "meta_ephemeris_type": 0,
        "meta_classification_type": "U",
        "meta_norad_cat_id": 36131,
        "meta_element_set_no": 999,
        "meta_rev_at_epoch": 4467,
        "meta_bstar": 0,
        "meta_mean_motion_dot": -9.5e-07,
        "meta_mean_motion_ddot": 0,
        "tle_line1": "1 36131U 09075A   25345.97064095 -.00000095  00000+0  00000+0 0  9997",
        "tle_line2": "2 36131   0.0479 139.1887 0000468 218.3000 330.1480  1.00271584 44673"
      },
      "geometry": {
        "type": "Point",
        "coordinates": [
          153.33870627187554,
          0.018199769985764128
        ]
      }
    },
    {
      "type": "Feature",
      "properties": {
        "norad_id": 36397,
        "name": "INTELSAT 16 (IS-16)",
        "group": "intelsat",
        "lat": -0.012883773235011818,
        "lon": 179.83512538986017,
        "alt_km": 35784.85075007495,
        "timestamp": "2025-12-12T11:38:31.083933+00:00",
        "meta_object_name": "INTELSAT 16 (IS-16)",
        "meta_object_id": "2010-006A",
        "meta_epoch": "2025-12-12T02:50:40.668000",
        "meta_mean_motion": 1.00272257,
        "meta_eccentricity": 0.0002105,
        "meta_inclination": 0.0089,
        "meta_ra_of_asc_node": 329.2719,
        "meta_arg_of_pericenter": 293.2852,
        "meta_mean_anomaly": 144.9859,
        "meta_ephemeris_type": 0,
        "meta_classification_type": "U",
        "meta_norad_cat_id": 36397,
        "meta_element_set_no": 999,
        "meta_rev_at_epoch": 5777,
        "meta_bstar": 0,
        "meta_mean_motion_dot": -2.35e-06,
        "meta_mean_motion_ddot": 0,
        "tle_line1": "1 36397U 10006A   25346.11852625 -.00000235  00000+0  00000+0 0  9994",
        "tle_line2": "2 36397   0.0089 329.2719 0002105 293.2852 144.9859  1.00272257 57771"
      },
      "geometry": {
        "type": "Point",
        "coordinates": [
          179.83512538986017,
          -0.012883773235011818
        ]
      }
    },
    {
      "type": "Feature",
      "properties": {
        "norad_id": 37185,
        "name": "XM-5",
        "group": "intelsat",
        "lat": -0.03984931706009011,
        "lon": 140.85707208615437,
        "alt_km": 35779.33883494639,
        "timestamp": "2025-12-12T11:38:31.083944+00:00",
        "meta_object_name": "XM-5",
        "meta_object_id": "2010-053A",
        "meta_epoch": "2025-12-12T03:46:38.737056",
        "meta_mean_motion": 1.00272664,
        "meta_eccentricity": 0.0001561,
        "meta_inclination": 0.0596,
        "meta_ra_of_asc_node": 272.3532,
        "meta_arg_of_pericenter": 236.8409,
        "meta_mean_anomaly": 233.3792,
        "meta_ephemeris_type": 0,
        "meta_classification_type": "U",
        "meta_norad_cat_id": 37185,
        "meta_element_set_no": 999,
        "meta_rev_at_epoch": 5560,
        "meta_bstar": 0,
        "meta_mean_motion_dot": -1.4e-07,
        "meta_mean_motion_ddot": 0,
        "tle_line1": "1 37185U 10053A   25346.15739279 -.00000014  00000+0  00000+0 0  9990",
        "tle_line2": "2 37185   0.0596 272.3532 0001561 236.8409 233.3792  1.00272664 55608"
      },
      "geometry": {
        "type": "Point",
        "coordinates": [
          140.85707208615437,
          -0.03984931706009011
        ]
      }
    }
  ]
}